EUTELSAT 115 WEST B     
1 40425U 15010B   24281.39771634 -.00000014  00000+0  00000+0 0  9993
2 40425   0.0106  69.3452 0000151 190.6328 144.8423  1.00272676 35239
EXPRESS-AM7             
1 40505U 15012A   24282.19455221  .00000161  00000+0  00000+0 0  9996
2 40505   0.0155 208.6913 0002588 359.3354 279.3091  1.00270719 35175
IRNSS-1D                
1 40547U 15018A   24281.85117747 -.00000273  00000+0  00000+0 0  9993
2 40547  27.2673 250.7542 0018589 193.4653 350.8900  1.00267964 35059
BEIDOU-3S IGSO-1S       
1 40549U 15019A   24280.91067597 -.00000158  00000+0  00000+0 0  9991
2 40549  50.3662 302.8689 0036282 198.1942 299.6203  1.00280972 34868
THOR 7                  
1 40613U 15022A   24281.58658433  .00000003  00000+0  00000+0 0  9994
2 40613   0.0298 112.8710 0002549  81.0395  33.3433  1.00272643 34620
TURKMENALEM52E/MONACOSAT
1 40617U 15023A   24282.07410404  .00000114  00000+0  00000+0 0  9991
2 40617   0.0150 167.5327 0002588  32.3684 256.0121  1.00271128 34642
DIRECTV 15              
1 40663U 15026A   24281.50286425 -.00000091  00000+0  00000+0 0  9991
2 40663   0.0356  90.4347 0000506  55.1067 309.2863  1.00268854 34346
SKY MEXICO-1            
1 40664U 15026B   24281.37549336 -.00000223  00000+0  00000+0 0  9997
2 40664   0.0129  79.9664 0002051 117.4684 235.5119  1.00271970 34251
METEOSAT-11 (MSG-4)     
1 40732U 15034A   24281.83102122  .00000077  00000+0  00000+0 0  9997
2 40732   1.6564  70.8853 0001797 184.4722  70.3846  1.00280004  1030
STAR ONE C4             
1 40733U 15034B   24281.52906218 -.00000254  00000+0  00000+0 0  9990
2 40733   0.0401  24.9242 0000930 176.3696 295.8576  1.00272805 33831
WGS F7 (USA 263)        
1 40746U 15036A   24282.20813036  .00000027  00000+0  00000+0 0  9994
2 40746   0.0107 204.9285 0000388 321.5826 100.7788  1.00268249 33679
INTELSAT 34 (IS-34)     
1 40874U 15039A   24281.81807604 -.00000275  00000+0  00000+0 0  9995
2 40874   0.0155 244.1704 0000990 161.7613 210.0537  1.00272656 33431
EUTELSAT 8 WEST B       
1 40875U 15039B   24281.61298562 -.00000055  00000+0  00000+0 0  9997
2 40875   0.0669   2.8854 0003636 199.1245  27.4142  1.00271505 33493
GSAT-6                  
1 40880U 15041A   24282.13147706 -.00000150  00000+0  00000+0 0  9993
2 40880   0.3156  91.8732 0003255 112.2995 302.9442  1.00271629 33403
INMARSAT 5-F3           
1 40882U 15042A   24281.58610256  .00000061  00000+0  00000+0 0  9999
2 40882   0.0177 154.5266 0000432 299.4394 313.3506  1.00271332 33362
MUOS-4                  
1 40887U 15044A   24282.13017385 -.00000082  00000+0  00000+0 0  9996
2 40887   3.2648  34.5400 0051630 359.9257 104.7148  1.00272518 33369
TJS-1                   
1 40892U 15046A   24281.81993803 -.00000145  00000+0  00000+0 0  9996
2 40892   0.0229 294.0869 0003971  54.3669 118.7083  1.00273838 33375
EXPRESS-AM8             
1 40895U 15048A   24281.32576206 -.00000100  00000+0  00000+0 0  9992
2 40895   0.0170 251.2394 0000422 243.6777 344.8500  1.00274531 33188
BEIDOU-3S IGSO-2S       
1 40938U 15053A   24281.91983706 -.00000113  00000+0  00000+0 0  9992
2 40938  50.1876 266.0858 0052532 190.3987 348.1336  1.00280900 33152
SKY MUSTER 1 (NBN1A)    
1 40940U 15054A   24281.56035286 -.00000267  00000+0  00000+0 0  9998
2 40940   0.0167 251.1603 0001835 293.1735 174.3631  1.00273343 33068
ARSAT 2                 
1 40941U 15054B   24282.17480044 -.00000215  00000+0  00000+0 0  9996
2 40941   0.0210 311.6376 0001906 232.4240 175.1839  1.00271521 33125
MORELOS 3               
1 40946U 15056A   24282.18591191 -.00000034  00000+0  00000+0 0  9999
2 40946   2.9899 355.7426 0003179 187.6335 147.7652  1.00272589 33098
APSTAR-9                
1 40982U 15059A   24281.78579073 -.00000255  00000+0  00000+0 0  9997
2 40982   0.0174 101.9590 0002532  74.0796 265.7903  1.00270508 32962
TURKSAT 4B              
1 40984U 15060A   24281.71090852  .00000125  00000+0  00000+0 0  9992
2 40984   0.0685  84.2539 0002637  55.6981 182.8232  1.00272973 32900
ZHONGXING-2C            
1 41021U 15063A   24281.84619012 -.00000313  00000+0  00000+0 0  9997
2 41021   0.0830  70.5059 0005118 118.9680 235.5885  1.00268647 32808
GSAT-15                 
1 41028U 15065A   24281.84073432 -.00000247  00000+0  00000+0 0  9992
2 41028   0.0142 211.2110 0002312 334.4014 227.5115  1.00269070 32608
BADR-7 (ARABSAT-6B)     
1 41029U 15065B   24281.69126486  .00000156  00000+0  00000+0 0  9992
2 41029   0.0536 245.4283 0006837 341.1161  65.1647  1.00274523 32571
LAOSAT 1                
1 41034U 15067A   24281.99761142 -.00000333  00000+0  00000+0 0  9995
2 41034   0.0358 337.8644 0001799 152.8389  14.0623  1.00268539 32653
TELSTAR 12V             
1 41036U 15068A   24281.82615590 -.00000108  00000+0  00000+0 0  9995
2 41036   0.0182 222.5435 0002100 324.3695 112.4970  1.00272096 32539
ELEKTRO-L 2             
1 41105U 15074A   24281.82624278 -.00000104  00000+0  00000+0 0  9998
2 41105   5.1240  78.0730 0002965 164.8750  57.0258  1.00272039 32313
COSMOS 2513             
1 41121U 15075A   24281.55903590 -.00000129  00000+0  00000+0 0  9991
2 41121   0.0534 102.1522 0002231 147.4188  48.6589  1.00273878 32345
EXPRESS-AMU1            
1 41191U 15082A   24281.69326310  .00000166  00000+0  00000+0 0  9990
2 41191   0.0140 129.4351 0002333  83.2441  89.8364  1.00273934 32070
GAOFEN-4                
1 41194U 15083A   24281.84754265 -.00000324  00000+0  00000+0 0  9992
2 41194   0.0446 305.9644 0001617 309.8652 171.9242  1.00267328 32330
BELINTERSAT-1           
1 41238U 16001A   24281.71090852  .00000117  00000+0  00000+0 0  9992
2 41238   0.0453   4.3364 0001336 222.0784  97.8660  1.00274313 32046
IRNSS-1E                
1 41241U 16003A   24281.82708306 -.00000276  00000+0  00000+0 0  9997
2 41241  31.8883  71.7972 0020927 180.2721 174.4779  1.00275371 31884
EUTELSAT 9B             
1 41310U 16005A   24281.83084744  .00000072  00000+0  00000+0 0  9993
2 41310   0.0572  60.5919 0003403 165.9336  98.5499  1.00271493 31913
SES-9                   
1 41380U 16013A   24282.11993826 -.00000335  00000+0  00000+0 0  9994
2 41380   0.0249 283.5827 0001598 210.9481  34.2186  1.00270762 31560
EUTELSAT 65 WEST A      
1 41382U 16014A   24281.81593821 -.00000265  00000+0  00000+0 0  9996
2 41382   0.0648 328.6405 0002116 229.1549  47.7045  1.00270067 31349
IRNSS-1F                
1 41384U 16015A   24281.54947906  .00000171  00000+0  00000+0 0  9991
2 41384   3.8276 113.8048 0020841 176.5871 316.5180  1.00273352 31475
BEIDOU-2 IGSO-6         
1 41434U 16021A   24281.84033454 -.00000143  00000+0  00000+0 0  9991
2 41434  59.3500  44.2220 0053809 222.3428 147.3922  1.00292887 31281
IRNSS-1G                
1 41469U 16027A   24281.99787205 -.00000323  00000+0  00000+0 0  9991
2 41469   3.6957 114.8950 0003528  19.1436  11.8835  1.00268316 30989
JCSAT-2B                
1 41471U 16028A   24281.54459762 -.00000154  00000+0  00000+0 0  9992
2 41471   0.0177 201.1382 0000934 344.6531 180.9629  1.00270506 30923
THAICOM 8               
1 41552U 16031A   24281.80750050 -.00000112  00000+0  00000+0 0  9993
2 41552   0.0782  48.7217 0001494 159.2051 178.2801  1.00272610 30522
INTELSAT 31 (IS-31)     
1 41581U 16035A   24281.38660771 -.00000140  00000+0  00000+0 0  9993
2 41581   0.0067 220.1050 0001174 293.4568 267.1004  1.00271525 30493
BEIDOU-2 G7             
1 41586U 16037A   24281.99404932 -.00000342  00000+0  00000+0 0  9996
2 41586   1.6456  66.2360 0006572 351.4082  67.7546  1.00264924 30594
ABS-2A (MONGOLSAT-1)    
1 41588U 16038A   24281.55790646 -.00000074  00000+0  00000+0 0  9993
2 41588   0.0175 237.4689 0001723 271.9557 142.8549  1.00272063 30512
EUTELSAT 117 WEST B     
1 41589U 16038B   24281.66285497 -.00000001  00000+0  00000+0 0  9999
2 41589   0.0111  66.6561 0000265 198.0125 233.7653  1.00271220 30480
BRISAT                  
1 41591U 16039A   24281.78744144 -.00000186  00000+0  00000+0 0  9999
2 41591   0.0153 258.1332 0002088 285.8142 266.9731  1.00271404 30414
ECHOSTAR 18             
1 41592U 16039B   24280.97688282 -.00000271  00000+0  00000+0 0  9995
2 41592   0.0179 199.5813 0001565 347.4704 119.4192  1.00272052 30427
MUOS-5                  
1 41622U 16041A   24281.66494010 -.00000123  00000+0  00000+0 0  9999
2 41622   3.6193 296.7945 0200433 255.4250 319.0290  1.00271683 30876
TIANTONG-1 1            
1 41725U 16048A   24282.11993826 -.00000308  00000+0  00000+0 0  9995
2 41725   2.7855  32.8844 0002713 262.1146 226.8994  1.00273051 30071
JCSAT-16                
1 41729U 16050A   24281.64625022 -.00000240  00000+0  00000+0 0  9994
2 41729   0.0171 183.8511 0001510 284.4528 285.1028  1.00270835 29879
INTELSAT 36 (IS-36)     
1 41747U 16053A   24281.12767483 -.00000014  00000+0  00000+0 0  9997
2 41747   0.0192 297.9784 0002302  79.0457 113.7278  1.00271063 29754
INTELSAT 33E (IS-33E)   
1 41748U 16053B   24281.55495252  .00000060  00000+0  00000+0 0  9997
2 41748   0.0156 206.6174 0002238 350.7206  79.1182  1.00270847 30057
INSAT-3DR               
1 41752U 16054A   24281.74980072 -.00000067  00000+0  00000+0 0  9991
2 41752   0.1103  92.0607 0012587 171.0982  97.6643  1.00271714 29606
GSAT-18                 
1 41793U 16060A   24281.74980072 -.00000067  00000+0  00000+0 0  9993
2 41793   0.0587  94.4244 0001672 107.0591 159.3452  1.00272196 29336
SKY MUSTER 2 (NBN1B)    
1 41794U 16060B   24281.64625021 -.00000233  00000+0  00000+0 0  9998
2 41794   0.0173 251.3645 0001395 290.3603 212.5346  1.00272253 29326
HIMAWARI-9              
1 41836U 16064A   24281.57093851 -.00000264  00000+0  00000+0 0  9995
2 41836   0.0322 189.0541 0000772  18.1029 155.8762  1.00272278 29011
SHIJIAN-17 (SJ-17)      
1 41838U 16065A   24281.84320212 -.00000017  00000+0  00000+0 0  9998
2 41838   4.1711  80.0311 0002146 209.5541 200.2646  1.00273622 29028
